HULIANWANG DIGUI-132    
1 67240U 25311E   26017.94154879 -.00000031  00000+0  95137-4 0  9997
2 67240  50.0106 304.2881 0003701 315.0318  45.0280 13.88391613  3208
HULIANWANG DIGUI-133    
1 67241U 25311F   26017.86737512 -.00000014  00000+0  10877-3 0  9998
2 67241  50.0120 304.5905 0005545 357.4712   2.6157 13.88581859  3194
HULIANWANG DIGUI-134    
1 67242U 25311G   26017.94066276 -.00000017  00000+0  10647-3 0  9998
2 67242  50.0033 304.2900 0002548 346.6476  13.4354 13.88341979  3205
HULIANWANG DIGUI-135    
1 67243U 25311H   26017.94317414 -.00000025  00000+0  10080-3 0  9992
2 67243  50.0132 304.2671 0005437 228.6791 131.3640 13.88005054  3209
HULIANWANG DIGUI-136    
1 67244U 25311J   26017.93794704 -.00000020  00000+0  10398-3 0  9990
2 67244  50.0108 304.2894 0001918 343.4440  16.6395 13.88652106  3205
CZ-8A R/B               
1 67245U 25311K   26017.94254836 -.00000015  00000+0  72523-4 0  9992
2 67245  50.0036 300.9565 0088979 161.2274 199.1950 14.12608536  3252
FENGYUN 4C              
1 67246U 25312A   26018.46617874 -.00000308  00000+0  00000+0 0  9998
2 67246   0.0684 237.5377 0002243  48.3416 132.8101  1.00266763   272
CZ-3B R/B               
1 67247U 25312B   26016.97827333  .00193198  25258-6  81148-3 0  9990
2 67247  28.4461 325.8546 7199052 192.6123 128.6519  2.44611885   510
2025-313A               
1 67248U 25313A   26017.93734422  .00001337  00000+0  13785-3 0  9991
2 67248  97.5625  93.8946 0280581  99.3666 263.9376 14.66802894  2999
2025-313B               
1 67249U 25313B   26017.91831898  .00003810  00000+0  29289-3 0  9999
2 67249  97.5319  93.9793 0297793 103.5406 259.9162 14.73213292  3001
2025-313C               
1 67250U 25313C   26017.96668355  .00016199  00000+0  15082-2 0  9991
2 67250  97.6362  94.6413 0162880 113.2938 248.5515 14.84755825  3039
2025-313D               
1 67251U 25313D   26017.90818438  .00002822  00000+0  24808-3 0  9990
2 67251  97.5874  94.5736 0152455 106.0578 255.7488 14.88757651  3033
