CCSDS_OMM_VERS = 2.0
CREATION_DATE  = 
ORIGINATOR     = 

OBJECT_NAME    = HULIANWANG DIGUI-132
OBJECT_ID      = 2025-311E
CENTER_NAME    = EARTH
REF_FRAME      = TEME
TIME_SYSTEM    = UTC
MEAN_ELEMENT_THEORY = SGP/SGP4

EPOCH          = 2026-01-17T22:35:49.815456
MEAN_MOTION    = 13.88391613
ECCENTRICITY   = .00037016
INCLINATION    = 50.0106
RA_OF_ASC_NODE = 304.2881
ARG_OF_PERICENTER = 315.0318
MEAN_ANOMALY   = 45.0280

EPHEMERIS_TYPE = 0
CLASSIFICATION_TYPE = U
NORAD_CAT_ID   = 67240
ELEMENT_SET_NO = 999
REV_AT_EPOCH   = 320
BSTAR          = .95137056E-4
MEAN_MOTION_DOT = -.31E-6
MEAN_MOTION_DDOT = 0

CCSDS_OMM_VERS = 2.0
CREATION_DATE  = 
ORIGINATOR     = 

OBJECT_NAME    = HULIANWANG DIGUI-133
OBJECT_ID      = 2025-311F
CENTER_NAME    = EARTH
REF_FRAME      = TEME
TIME_SYSTEM    = UTC
MEAN_ELEMENT_THEORY = SGP/SGP4

EPOCH          = 2026-01-17T20:49:01.210368
MEAN_MOTION    = 13.88581859
ECCENTRICITY   = .0005545
INCLINATION    = 50.0120
RA_OF_ASC_NODE = 304.5905
ARG_OF_PERICENTER = 357.4712
MEAN_ANOMALY   = 2.6157

EPHEMERIS_TYPE = 0
CLASSIFICATION_TYPE = U
NORAD_CAT_ID   = 67241
ELEMENT_SET_NO = 999
REV_AT_EPOCH   = 319
BSTAR          = .10876706E-3
MEAN_MOTION_DOT = -.14E-6
MEAN_MOTION_DDOT = 0

CCSDS_OMM_VERS = 2.0
CREATION_DATE  = 
ORIGINATOR     = 

OBJECT_NAME    = HULIANWANG DIGUI-134
OBJECT_ID      = 2025-311G
CENTER_NAME    = EARTH
REF_FRAME      = TEME
TIME_SYSTEM    = UTC
MEAN_ELEMENT_THEORY = SGP/SGP4

EPOCH          = 2026-01-17T22:34:33.262464
MEAN_MOTION    = 13.88341979
ECCENTRICITY   = .00025487
INCLINATION    = 50.0033
RA_OF_ASC_NODE = 304.2900
ARG_OF_PERICENTER = 346.6476
MEAN_ANOMALY   = 13.4354

EPHEMERIS_TYPE = 0
CLASSIFICATION_TYPE = U
NORAD_CAT_ID   = 67242
ELEMENT_SET_NO = 999
REV_AT_EPOCH   = 320
BSTAR          = .10647216E-3
MEAN_MOTION_DOT = -.17E-6
MEAN_MOTION_DDOT = 0

CCSDS_OMM_VERS = 2.0
CREATION_DATE  = 
ORIGINATOR     = 

OBJECT_NAME    = HULIANWANG DIGUI-135
OBJECT_ID      = 2025-311H
CENTER_NAME    = EARTH
REF_FRAME      = TEME
TIME_SYSTEM    = UTC
MEAN_ELEMENT_THEORY = SGP/SGP4

EPOCH          = 2026-01-17T22:38:10.245696
MEAN_MOTION    = 13.88005054
ECCENTRICITY   = .00054377
INCLINATION    = 50.0132
RA_OF_ASC_NODE = 304.2671
ARG_OF_PERICENTER = 228.6791
MEAN_ANOMALY   = 131.3640

EPHEMERIS_TYPE = 0
CLASSIFICATION_TYPE = U
NORAD_CAT_ID   = 67243
ELEMENT_SET_NO = 999
REV_AT_EPOCH   = 320
BSTAR          = .10079806E-3
MEAN_MOTION_DOT = -.25E-6
MEAN_MOTION_DDOT = 0

CCSDS_OMM_VERS = 2.0
CREATION_DATE  = 
ORIGINATOR     = 

OBJECT_NAME    = HULIANWANG DIGUI-136
OBJECT_ID      = 2025-311J
CENTER_NAME    = EARTH
REF_FRAME      = TEME
TIME_SYSTEM    = UTC
MEAN_ELEMENT_THEORY = SGP/SGP4

EPOCH          = 2026-01-17T22:30:38.624256
MEAN_MOTION    = 13.88652106
ECCENTRICITY   = .00019187
INCLINATION    = 50.0108
RA_OF_ASC_NODE = 304.2894
ARG_OF_PERICENTER = 343.4440
MEAN_ANOMALY   = 16.6395

EPHEMERIS_TYPE = 0
CLASSIFICATION_TYPE = U
NORAD_CAT_ID   = 67244
ELEMENT_SET_NO = 999
REV_AT_EPOCH   = 320
BSTAR          = .10398096E-3
MEAN_MOTION_DOT = -.2E-6
MEAN_MOTION_DDOT = 0

CCSDS_OMM_VERS = 2.0
CREATION_DATE  = 
ORIGINATOR     = 

OBJECT_NAME    = CZ-8A R/B
OBJECT_ID      = 2025-311K
CENTER_NAME    = EARTH
REF_FRAME      = TEME
TIME_SYSTEM    = UTC
MEAN_ELEMENT_THEORY = SGP/SGP4

EPOCH          = 2026-01-17T22:37:16.178304
MEAN_MOTION    = 14.12608536
ECCENTRICITY   = .0088979
INCLINATION    = 50.0036
RA_OF_ASC_NODE = 300.9565
ARG_OF_PERICENTER = 161.2274
MEAN_ANOMALY   = 199.1950

EPHEMERIS_TYPE = 0
CLASSIFICATION_TYPE = U
NORAD_CAT_ID   = 67245
ELEMENT_SET_NO = 999
REV_AT_EPOCH   = 325
BSTAR          = .72523064E-4
MEAN_MOTION_DOT = -.15E-6
MEAN_MOTION_DDOT = 0

CCSDS_OMM_VERS = 2.0
CREATION_DATE  = 
ORIGINATOR     = 

OBJECT_NAME    = FENGYUN 4C
OBJECT_ID      = 2025-312A
CENTER_NAME    = EARTH
REF_FRAME      = TEME
TIME_SYSTEM    = UTC
MEAN_ELEMENT_THEORY = SGP/SGP4

EPOCH          = 2026-01-18T11:11:17.843136
MEAN_MOTION    = 1.00266763
ECCENTRICITY   = .0002243
INCLINATION    = 0.0684
RA_OF_ASC_NODE = 237.5377
ARG_OF_PERICENTER = 48.3416
MEAN_ANOMALY   = 132.8101

EPHEMERIS_TYPE = 0
CLASSIFICATION_TYPE = U
NORAD_CAT_ID   = 67246
ELEMENT_SET_NO = 999
REV_AT_EPOCH   = 27
BSTAR          = 0
MEAN_MOTION_DOT = -.308E-5
MEAN_MOTION_DDOT = 0

CCSDS_OMM_VERS = 2.0
CREATION_DATE  = 
ORIGINATOR     = 

OBJECT_NAME    = CZ-3B R/B
OBJECT_ID      = 2025-312B
CENTER_NAME    = EARTH
REF_FRAME      = TEME
TIME_SYSTEM    = UTC
MEAN_ELEMENT_THEORY = SGP/SGP4

EPOCH          = 2026-01-16T23:28:42.815712
MEAN_MOTION    = 2.44611885
ECCENTRICITY   = .71990527
INCLINATION    = 28.4461
RA_OF_ASC_NODE = 325.8546
ARG_OF_PERICENTER = 192.6123
MEAN_ANOMALY   = 128.6519

EPHEMERIS_TYPE = 0
CLASSIFICATION_TYPE = U
NORAD_CAT_ID   = 67247
ELEMENT_SET_NO = 999
REV_AT_EPOCH   = 51
BSTAR          = .81148402E-3
MEAN_MOTION_DOT = .193198E-2
MEAN_MOTION_DDOT = .252585E-6

CCSDS_OMM_VERS = 2.0
CREATION_DATE  = 
ORIGINATOR     = 

OBJECT_NAME    = 2025-313A
OBJECT_ID      = 2025-313A
CENTER_NAME    = EARTH
REF_FRAME      = TEME
TIME_SYSTEM    = UTC
MEAN_ELEMENT_THEORY = SGP/SGP4

EPOCH          = 2026-01-17T22:29:46.540608
MEAN_MOTION    = 14.66802894
ECCENTRICITY   = .02805812
INCLINATION    = 97.5625
RA_OF_ASC_NODE = 93.8946
ARG_OF_PERICENTER = 99.3666
MEAN_ANOMALY   = 263.9376

EPHEMERIS_TYPE = 0
CLASSIFICATION_TYPE = U
NORAD_CAT_ID   = 67248
ELEMENT_SET_NO = 999
REV_AT_EPOCH   = 299
BSTAR          = .13785135E-3
MEAN_MOTION_DOT = .1337E-4
MEAN_MOTION_DDOT = 0

CCSDS_OMM_VERS = 2.0
CREATION_DATE  = 
ORIGINATOR     = 

OBJECT_NAME    = 2025-313B
OBJECT_ID      = 2025-313B
CENTER_NAME    = EARTH
REF_FRAME      = TEME
TIME_SYSTEM    = UTC
MEAN_ELEMENT_THEORY = SGP/SGP4

EPOCH          = 2026-01-17T22:02:22.759872
MEAN_MOTION    = 14.73213292
ECCENTRICITY   = .02977931
INCLINATION    = 97.5319
RA_OF_ASC_NODE = 93.9793
ARG_OF_PERICENTER = 103.5406
MEAN_ANOMALY   = 259.9162

EPHEMERIS_TYPE = 0
CLASSIFICATION_TYPE = U
NORAD_CAT_ID   = 67249
ELEMENT_SET_NO = 999
REV_AT_EPOCH   = 300
BSTAR          = .29289376E-3
MEAN_MOTION_DOT = .381E-4
MEAN_MOTION_DDOT = 0

CCSDS_OMM_VERS = 2.0
CREATION_DATE  = 
ORIGINATOR     = 

OBJECT_NAME    = 2025-313C
OBJECT_ID      = 2025-313C
CENTER_NAME    = EARTH
REF_FRAME      = TEME
TIME_SYSTEM    = UTC
MEAN_ELEMENT_THEORY = SGP/SGP4

EPOCH          = 2026-01-17T23:12:01.458720
MEAN_MOTION    = 14.84755825
ECCENTRICITY   = .016288
INCLINATION    = 97.6362
RA_OF_ASC_NODE = 94.6413
ARG_OF_PERICENTER = 113.2938
MEAN_ANOMALY   = 248.5515

EPHEMERIS_TYPE = 0
CLASSIFICATION_TYPE = U
NORAD_CAT_ID   = 67250
ELEMENT_SET_NO = 999
REV_AT_EPOCH   = 303
BSTAR          = .15082257E-2
MEAN_MOTION_DOT = .16199E-3
MEAN_MOTION_DDOT = 0

CCSDS_OMM_VERS = 2.0
CREATION_DATE  = 
ORIGINATOR     = 

OBJECT_NAME    = 2025-313D
OBJECT_ID      = 2025-313D
CENTER_NAME    = EARTH
REF_FRAME      = TEME
TIME_SYSTEM    = UTC
MEAN_ELEMENT_THEORY = SGP/SGP4

EPOCH          = 2026-01-17T21:47:47.130432
MEAN_MOTION    = 14.88757651
ECCENTRICITY   = .01524551
INCLINATION    = 97.5874
RA_OF_ASC_NODE = 94.5736
ARG_OF_PERICENTER = 106.0578
MEAN_ANOMALY   = 255.7488

EPHEMERIS_TYPE = 0
CLASSIFICATION_TYPE = U
NORAD_CAT_ID   = 67251
ELEMENT_SET_NO = 999
REV_AT_EPOCH   = 303
BSTAR          = .24807642E-3
MEAN_MOTION_DOT = .2822E-4
MEAN_MOTION_DDOT = 0

